<?xml version="1.0" encoding="UTF-8"?>
<gpx version="1.1" creator="sample" xmlns="http://www.topografix.com/GPX/1/1">
  <trk>
    <name>Sample hike near Tobermory</name>
    <trkseg>
      <trkpt lat="45.2540" lon="-81.6640"><ele>190</ele></trkpt>
      <trkpt lat="45.2500" lon="-81.6560"><ele>192</ele></trkpt>
      <trkpt lat="45.2455" lon="-81.6480"><ele>195</ele></trkpt>
      <trkpt lat="45.2410" lon="-81.6395"><ele>198</ele></trkpt>
      <trkpt lat="45.2370" lon="-81.6300"><ele>200</ele></trkpt>
      <trkpt lat="45.2330" lon="-81.6210"><ele>197</ele></trkpt>
      <trkpt lat="45.2300" lon="-81.6120"><ele>193</ele></trkpt>
    </trkseg>
  </trk>
</gpx>
